KUIPER-00209            
1 67776U 26030N   26060.91668981  .00057663  00000+0  18647-2 0  9990
2 67776  51.8818 256.9361 0013624  42.0012 333.6842 15.31431372  3296
KUIPER-00213            
1 67777U 26030P   26060.91220929  .00006599  00000+0  21817-3 0  9993
2 67777  51.8800 256.9325 0014456  41.3930 318.8148 15.32503520  3899
KUIPER-00214            
1 67778U 26030Q   26060.94054958  .00034051  00000+0  95041-3 0  9998
2 67778  51.8839 256.3887 0001251 187.9531 172.1436 15.36414892  3902
KUIPER-00215            
1 67779U 26030R   26060.96599116  .00024768  00000+0  74760-3 0  9990
2 67779  51.8826 256.5539 0009884  38.4733 321.6955 15.34082897  3900
KUIPER-00218            
1 67780U 26030S   26060.95803344  .00020523  00000+0  60829-3 0  9998
2 67780  51.8819 256.5007 0006243  30.5999 329.5349 15.34801992  3906
KUIPER-00220            
1 67781U 26030T   26060.89806090  .00031169  00000+0  92885-3 0  9998
2 67781  51.8798 256.8433 0008135  34.7536 325.3979 15.34377201  3896
KUIPER-00222            
1 67782U 26030U   26060.91547838  .00010777  00000+0  34928-3 0  9990
2 67782  51.8803 256.9522 0017542  39.0398 321.1849 15.32397377  3894
KUIPER-00223            
1 67783U 26030V   26060.90367989  .00028588  00000+0  86567-3 0  9992
2 67783  51.8815 256.8827 0012235  38.0426 322.1422 15.33877048  3897
KUIPER-00225            
1 67784U 26030W   26060.95070522  .00032681  00000+0  93919-3 0  9990
2 67784  51.8801 256.4496 0003698  20.3094 339.8039 15.35518384  3907
KUIPER-00226            
1 67785U 26030X   26060.92442643  .00021391  00000+0  70007-3 0  9994
2 67785  51.8814 257.0102 0020052  49.8715 310.4023 15.31446969  3893
KUIPER-00259            
1 67786U 26030Y   26060.95984248  .00025337  00000+0  75013-3 0  9996
2 67786  51.8794 256.5071 0007969  28.4716 331.6703 15.34697101  3907
KUIPER-00260            
1 67787U 26030Z   26060.94430056  .00026993  00000+0  76479-3 0  9995
2 67787  51.8790 256.4065 0000843  82.2256 277.8826 15.36067904  3818
