CCSDS_OMM_VERS = 2.0
CREATION_DATE  = 
ORIGINATOR     = 

OBJECT_NAME    = KUIPER-00209
OBJECT_ID      = 2026-030N
CENTER_NAME    = EARTH
REF_FRAME      = TEME
TIME_SYSTEM    = UTC
MEAN_ELEMENT_THEORY = SGP/SGP4

EPOCH          = 2026-03-01T22:00:01.999584
MEAN_MOTION    = 15.31431372
ECCENTRICITY   = .00136243
INCLINATION    = 51.8818
RA_OF_ASC_NODE = 256.9361
ARG_OF_PERICENTER = 42.0012
MEAN_ANOMALY   = 333.6842

EPHEMERIS_TYPE = 0
CLASSIFICATION_TYPE = U
NORAD_CAT_ID   = 67776
ELEMENT_SET_NO = 999
REV_AT_EPOCH   = 329
BSTAR          = .18647011E-2
MEAN_MOTION_DOT = .57663E-3
MEAN_MOTION_DDOT = 0

CCSDS_OMM_VERS = 2.0
CREATION_DATE  = 
ORIGINATOR     = 

OBJECT_NAME    = KUIPER-00213
OBJECT_ID      = 2026-030P
CENTER_NAME    = EARTH
REF_FRAME      = TEME
TIME_SYSTEM    = UTC
MEAN_ELEMENT_THEORY = SGP/SGP4

EPOCH          = 2026-03-01T21:53:34.882656
MEAN_MOTION    = 15.32503520
ECCENTRICITY   = .00144565
INCLINATION    = 51.8800
RA_OF_ASC_NODE = 256.9325
ARG_OF_PERICENTER = 41.3930
MEAN_ANOMALY   = 318.8148

EPHEMERIS_TYPE = 0
CLASSIFICATION_TYPE = U
NORAD_CAT_ID   = 67777
ELEMENT_SET_NO = 999
REV_AT_EPOCH   = 389
BSTAR          = .21816872E-3
MEAN_MOTION_DOT = .6599E-4
MEAN_MOTION_DDOT = 0

CCSDS_OMM_VERS = 2.0
CREATION_DATE  = 
ORIGINATOR     = 

OBJECT_NAME    = KUIPER-00214
OBJECT_ID      = 2026-030Q
CENTER_NAME    = EARTH
REF_FRAME      = TEME
TIME_SYSTEM    = UTC
MEAN_ELEMENT_THEORY = SGP/SGP4

EPOCH          = 2026-03-01T22:34:23.483712
MEAN_MOTION    = 15.36414892
ECCENTRICITY   = .00012512
INCLINATION    = 51.8839
RA_OF_ASC_NODE = 256.3887
ARG_OF_PERICENTER = 187.9531
MEAN_ANOMALY   = 172.1436

EPHEMERIS_TYPE = 0
CLASSIFICATION_TYPE = U
NORAD_CAT_ID   = 67778
ELEMENT_SET_NO = 999
REV_AT_EPOCH   = 390
BSTAR          = .95040726E-3
MEAN_MOTION_DOT = .34051E-3
MEAN_MOTION_DDOT = 0

CCSDS_OMM_VERS = 2.0
CREATION_DATE  = 
ORIGINATOR     = 

OBJECT_NAME    = KUIPER-00215
OBJECT_ID      = 2026-030R
CENTER_NAME    = EARTH
REF_FRAME      = TEME
TIME_SYSTEM    = UTC
MEAN_ELEMENT_THEORY = SGP/SGP4

EPOCH          = 2026-03-01T23:11:01.636224
MEAN_MOTION    = 15.34082897
ECCENTRICITY   = .00098849
INCLINATION    = 51.8826
RA_OF_ASC_NODE = 256.5539
ARG_OF_PERICENTER = 38.4733
MEAN_ANOMALY   = 321.6955

EPHEMERIS_TYPE = 0
CLASSIFICATION_TYPE = U
NORAD_CAT_ID   = 67779
ELEMENT_SET_NO = 999
REV_AT_EPOCH   = 390
BSTAR          = .74759797E-3
MEAN_MOTION_DOT = .24768E-3
MEAN_MOTION_DDOT = 0

CCSDS_OMM_VERS = 2.0
CREATION_DATE  = 
ORIGINATOR     = 

OBJECT_NAME    = KUIPER-00218
OBJECT_ID      = 2026-030S
CENTER_NAME    = EARTH
REF_FRAME      = TEME
TIME_SYSTEM    = UTC
MEAN_ELEMENT_THEORY = SGP/SGP4

EPOCH          = 2026-03-01T22:59:34.089216
MEAN_MOTION    = 15.34801992
ECCENTRICITY   = .00062439
INCLINATION    = 51.8819
RA_OF_ASC_NODE = 256.5007
ARG_OF_PERICENTER = 30.5999
MEAN_ANOMALY   = 329.5349

EPHEMERIS_TYPE = 0
CLASSIFICATION_TYPE = U
NORAD_CAT_ID   = 67780
ELEMENT_SET_NO = 999
REV_AT_EPOCH   = 390
BSTAR          = .60828956E-3
MEAN_MOTION_DOT = .20523E-3
MEAN_MOTION_DDOT = 0

CCSDS_OMM_VERS = 2.0
CREATION_DATE  = 
ORIGINATOR     = 

OBJECT_NAME    = KUIPER-00220
OBJECT_ID      = 2026-030T
CENTER_NAME    = EARTH
REF_FRAME      = TEME
TIME_SYSTEM    = UTC
MEAN_ELEMENT_THEORY = SGP/SGP4

EPOCH          = 2026-03-01T21:33:12.461760
MEAN_MOTION    = 15.34377201
ECCENTRICITY   = .00081356
INCLINATION    = 51.8798
RA_OF_ASC_NODE = 256.8433
ARG_OF_PERICENTER = 34.7536
MEAN_ANOMALY   = 325.3979

EPHEMERIS_TYPE = 0
CLASSIFICATION_TYPE = U
NORAD_CAT_ID   = 67781
ELEMENT_SET_NO = 999
REV_AT_EPOCH   = 389
BSTAR          = .92884752E-3
MEAN_MOTION_DOT = .31169E-3
MEAN_MOTION_DDOT = 0

CCSDS_OMM_VERS = 2.0
CREATION_DATE  = 
ORIGINATOR     = 

OBJECT_NAME    = KUIPER-00222
OBJECT_ID      = 2026-030U
CENTER_NAME    = EARTH
REF_FRAME      = TEME
TIME_SYSTEM    = UTC
MEAN_ELEMENT_THEORY = SGP/SGP4

EPOCH          = 2026-03-01T21:58:17.332032
MEAN_MOTION    = 15.32397377
ECCENTRICITY   = .00175422
INCLINATION    = 51.8803
RA_OF_ASC_NODE = 256.9522
ARG_OF_PERICENTER = 39.0398
MEAN_ANOMALY   = 321.1849

EPHEMERIS_TYPE = 0
CLASSIFICATION_TYPE = U
NORAD_CAT_ID   = 67782
ELEMENT_SET_NO = 999
REV_AT_EPOCH   = 389
BSTAR          = .34927786E-3
MEAN_MOTION_DOT = .10777E-3
MEAN_MOTION_DDOT = 0

CCSDS_OMM_VERS = 2.0
CREATION_DATE  = 
ORIGINATOR     = 

OBJECT_NAME    = KUIPER-00223
OBJECT_ID      = 2026-030V
CENTER_NAME    = EARTH
REF_FRAME      = TEME
TIME_SYSTEM    = UTC
MEAN_ELEMENT_THEORY = SGP/SGP4

EPOCH          = 2026-03-01T21:41:17.942496
MEAN_MOTION    = 15.33877048
ECCENTRICITY   = .00122357
INCLINATION    = 51.8815
RA_OF_ASC_NODE = 256.8827
ARG_OF_PERICENTER = 38.0426
MEAN_ANOMALY   = 322.1422

EPHEMERIS_TYPE = 0
CLASSIFICATION_TYPE = U
NORAD_CAT_ID   = 67783
ELEMENT_SET_NO = 999
REV_AT_EPOCH   = 389
BSTAR          = .86567185E-3
MEAN_MOTION_DOT = .28588E-3
MEAN_MOTION_DDOT = 0

CCSDS_OMM_VERS = 2.0
CREATION_DATE  = 
ORIGINATOR     = 

OBJECT_NAME    = KUIPER-00225
OBJECT_ID      = 2026-030W
CENTER_NAME    = EARTH
REF_FRAME      = TEME
TIME_SYSTEM    = UTC
MEAN_ELEMENT_THEORY = SGP/SGP4

EPOCH          = 2026-03-01T22:49:00.931008
MEAN_MOTION    = 15.35518384
ECCENTRICITY   = .00036983
INCLINATION    = 51.8801
RA_OF_ASC_NODE = 256.4496
ARG_OF_PERICENTER = 20.3094
MEAN_ANOMALY   = 339.8039

EPHEMERIS_TYPE = 0
CLASSIFICATION_TYPE = U
NORAD_CAT_ID   = 67784
ELEMENT_SET_NO = 999
REV_AT_EPOCH   = 390
BSTAR          = .93919474E-3
MEAN_MOTION_DOT = .32681E-3
MEAN_MOTION_DDOT = 0

CCSDS_OMM_VERS = 2.0
CREATION_DATE  = 
ORIGINATOR     = 

OBJECT_NAME    = KUIPER-00226
OBJECT_ID      = 2026-030X
CENTER_NAME    = EARTH
REF_FRAME      = TEME
TIME_SYSTEM    = UTC
MEAN_ELEMENT_THEORY = SGP/SGP4

EPOCH          = 2026-03-01T22:11:10.443552
MEAN_MOTION    = 15.31446969
ECCENTRICITY   = .00200526
INCLINATION    = 51.8814
RA_OF_ASC_NODE = 257.0102
ARG_OF_PERICENTER = 49.8715
MEAN_ANOMALY   = 310.4023

EPHEMERIS_TYPE = 0
CLASSIFICATION_TYPE = U
NORAD_CAT_ID   = 67785
ELEMENT_SET_NO = 999
REV_AT_EPOCH   = 389
BSTAR          = .70006864E-3
MEAN_MOTION_DOT = .21391E-3
MEAN_MOTION_DDOT = 0

CCSDS_OMM_VERS = 2.0
CREATION_DATE  = 
ORIGINATOR     = 

OBJECT_NAME    = KUIPER-00259
OBJECT_ID      = 2026-030Y
CENTER_NAME    = EARTH
REF_FRAME      = TEME
TIME_SYSTEM    = UTC
MEAN_ELEMENT_THEORY = SGP/SGP4

EPOCH          = 2026-03-01T23:02:10.390272
MEAN_MOTION    = 15.34697101
ECCENTRICITY   = .00079694
INCLINATION    = 51.8794
RA_OF_ASC_NODE = 256.5071
ARG_OF_PERICENTER = 28.4716
MEAN_ANOMALY   = 331.6703

EPHEMERIS_TYPE = 0
CLASSIFICATION_TYPE = U
NORAD_CAT_ID   = 67786
ELEMENT_SET_NO = 999
REV_AT_EPOCH   = 390
BSTAR          = .75013487E-3
MEAN_MOTION_DOT = .25337E-3
MEAN_MOTION_DDOT = 0

CCSDS_OMM_VERS = 2.0
CREATION_DATE  = 
ORIGINATOR     = 

OBJECT_NAME    = KUIPER-00260
OBJECT_ID      = 2026-030Z
CENTER_NAME    = EARTH
REF_FRAME      = TEME
TIME_SYSTEM    = UTC
MEAN_ELEMENT_THEORY = SGP/SGP4

EPOCH          = 2026-03-01T22:39:47.568384
MEAN_MOTION    = 15.36067904
ECCENTRICITY   = .00008432
INCLINATION    = 51.8790
RA_OF_ASC_NODE = 256.4065
ARG_OF_PERICENTER = 82.2256
MEAN_ANOMALY   = 277.8826

EPHEMERIS_TYPE = 0
CLASSIFICATION_TYPE = U
NORAD_CAT_ID   = 67787
ELEMENT_SET_NO = 999
REV_AT_EPOCH   = 381
BSTAR          = .76478745E-3
MEAN_MOTION_DOT = .26993E-3
MEAN_MOTION_DDOT = 0

